[{"OBJECT_NAME":"NUSAT-41 (C PAYNE-G)","OBJECT_ID":"2023-084N","EPOCH":"2026-03-09T21:55:54.837696","MEAN_MOTION":15.29680045,"ECCENTRICITY":0.00062175,"INCLINATION":97.5351,"RA_OF_ASC_NODE":204.1011,"ARG_OF_PERICENTER":322.2064,"MEAN_ANOMALY":37.8738,"EPHEMERIS_TYPE":0,"CLASSIFICATION_TYPE":"U","NORAD_CAT_ID":56944,"ELEMENT_SET_NO":999,"REV_AT_EPOCH":15260,"BSTAR":0.00059912824,"MEAN_MOTION_DOT":0.0001718,"MEAN_MOTION_DDOT":0},{"OBJECT_NAME":"STARLINK-31834","OBJECT_ID":"2024-088P","EPOCH":"2026-03-09T12:29:56.985216","MEAN_MOTION":15.30195923,"ECCENTRICITY":0.00012373,"INCLINATION":53.1618,"RA_OF_ASC_NODE":140.8837,"ARG_OF_PERICENTER":89.8283,"MEAN_ANOMALY":270.2859,"EPHEMERIS_TYPE":0,"CLASSIFICATION_TYPE":"U","NORAD_CAT_ID":59721,"ELEMENT_SET_NO":999,"REV_AT_EPOCH":10383,"BSTAR":6.7193706e-5,"MEAN_MOTION_DOT":1.631e-5,"MEAN_MOTION_DDOT":0}]
